{"spkid": "20016960", "covariance": {"epoch": "2458997.5", "labels": ["e", "q", "tp", "node", "peri", "i"], "data": [["2.554817056993493E-18", "-5.834033907605817E-18", "-1.755787052796365E-15", "-1.039106709318563E-16", "-3.476089036858857E-17", "-9.04168765024589E-17"], ["-5.834033907605817E-18", "1.334051817650354E-17", "4.155105473440209E-15", "1.814110339618288E-16", "1.232085389473183E-16", "1.97478066402141E-16"], ["-1.755787052796365E-15", "4.155105473440209E-15", "2.486894712471157E-12", "-3.777101778270403E-13", "4.041254631820941E-13", "-1.543154999820619E-14"], ["-1.039106709318563E-16", "1.814110339618288E-16", "-3.777101778270403E-13", "4.08569199588252E-13", "-3.364514207919388E-13", "6.071397558060202E-14"], ["-3.476089036858857E-17", "1.232085389473183E-16", "4.041254631820941E-13", "-3.364514207919388E-13", "3.071663420829773E-13", "-4.487263053693649E-14"], ["-9.04168765024589E-17", "1.97478066402141E-16", "-1.543154999820619E-14", "6.071397558060202E-14", "-4.487263053693649E-14", "1.97975434895758E-14"]], "elements": [{"name": "e", "sigma": 1.59837950968895e-09, "units": null, "title": "eccentricity", "value": ".8582685088805676", "label": "e"}, {"label": "q", "sigma": 3.65246740936912e-09, "name": "q", "units": "au", "value": ".3121216806023652", "title": "perihelion distance"}, {"label": "tp", "name": "tp", "sigma": 1.57698912883734e-06, "units": "TDB", "title": "time of perihelion passage", "value": "2459578.828800288629"}, {"label": "node", "units": "deg", "value": "260.4259453257991", "title": "longitude of the ascending node", "sigma": 6.39194179876704e-07, "name": "om"}, {"units": "deg", "title": "argument of perihelion", "value": "242.9555302837461", "name": "w", "sigma": 5.54225894453676e-07, "label": "peri"}, {"title": "inclination", "value": "17.54005486366436", "units": "deg", "name": "i", "sigma": 1.40703743694245e-07, "label": "i"}]}, "elements": [{"sigma": "1.5857E-9", "name": "e", "title": "eccentricity", "value": ".8591108377064893", "units": null, "label": "e"}, {"label": "a", "title": "semi-major axis", "value": "2.20056076097112", "units": "au", "name": "a", "sigma": "1.6613E-9"}, {"label": "q", "sigma": "3.6613E-9", "name": "q", "title": "perihelion distance", "value": ".3100351621891915", "units": "au"}, {"label": "i", "name": "i", "sigma": "1.404E-7", "value": "17.51488517820323", "title": "inclination; angle with respect to x-y ecliptic plane", "units": "deg"}, {"sigma": "6.4595E-7", "name": "om", "title": "longitude of the ascending node", "value": "260.1352737448578", "units": "deg", "label": "node"}, {"sigma": "5.619E-7", "name": "w", "title": "argument of perihelion", "value": "243.2687579594119", "units": "deg", "label": "peri"}, {"label": "M", "units": "deg", "value": "129.8231838191103", "title": "mean anomaly", "sigma": "9.4069E-7", "name": "ma"}, {"label": "tp", "units": "TDB", "title": "time of perihelion passage", "value": "2460770.520026380757", "name": "tp", "sigma": "2.6312E-6"}, {"sigma": "1.3502E-6", "name": "per", "title": "sidereal orbital period", "value": "1192.335497784499", "units": "d", "label": "period"}, {"name": "n", "sigma": "3.4191E-10", "value": ".3019284426815462", "title": "mean motion", "units": "deg/d", "label": "n"}, {"name": "ad", "sigma": "3.0886E-9", "units": "au", "title": "aphelion distance", "value": "4.091086359753048", "label": "Q"}], "epoch": "2461200.5"}